{"fetched_at":"2026-07-23T17:55:51.007Z","source":"https://celestrak.org/NORAD/elements/gp.php?NAME=SENTINEL&FORMAT=JSON","constellation":"sentinel-5p","records":[{"OBJECT_NAME":"SENTINEL-5P","OBJECT_ID":"2017-064A","EPOCH":"2026-07-23T06:58:31.418688","CLASSIFICATION_TYPE":"U","MEAN_MOTION":14.19524294,"ECCENTRICITY":0.00012076,"INCLINATION":98.7929,"RA_OF_ASC_NODE":146.1668,"ARG_OF_PERICENTER":92.3833,"MEAN_ANOMALY":267.7481,"EPHEMERIS_TYPE":0,"NORAD_CAT_ID":42969,"ELEMENT_SET_NO":999,"REV_AT_EPOCH":45468,"BSTAR":0.000037046843,"MEAN_MOTION_DOT":3.4e-7,"MEAN_MOTION_DDOT":0}]}
