SENTINEL-5P             
1 42969U 17064A   26204.29064142  .00000034  00000+0  37047-4 0  9991
2 42969  98.7929 146.1668 0001207  92.3833 267.7481 14.19524294454689
